QIANFAN-89              
1 63175U 25046S   26027.94465708  .00000245  00000+0  36017-3 0  9999
2 63175  88.9797 315.2653 0017126 358.9401   1.1711 13.50966716 53647
QIANFAN-90              
1 63176U 25046T   26027.89933427  .00000255  00000+0  37646-3 0  9992
2 63176  88.9797 315.2423 0014024 358.9540   1.1579 13.50968023 53657
QIANFAN-91              
1 66033U 25233A   26028.00607663  .00000064  00000+0  80711-4 0  9999
2 66033  88.9911  57.3937 0001836  89.5558 270.5804 13.50991335 14255
QIANFAN-92              
1 66034U 25233B   26027.94024165  .00000157  00000+0  22503-3 0  9999
2 66034  88.9894  57.3951 0002052  91.1612 268.9775 13.50994981 14240
QIANFAN-93              
1 66035U 25233C   26027.94846422  .00000060  00000+0  74204-4 0  9997
2 66035  88.9921  57.4082 0001904  89.6549 270.4820 13.50994039 14247
QIANFAN-94              
1 66036U 25233D   26026.44977491 -.01725135  00000+0 -29335+1 0  9994
2 66036  88.9917  57.4675 0016246 270.6077  89.3212 13.49114667 14098
QIANFAN-95              
1 66037U 25233E   26027.37316854 -.01971653  00000+0 -19880+1 0  9990
2 66037  88.9913  56.9807 0008835 221.9712 138.0781 13.81317335 14430
QIANFAN-96              
1 66038U 25233F   26027.89497626  .00000049  00000+0  56621-4 0  9992
2 66038  88.9913  57.4159 0001783  89.0459 271.0896 13.50991675 14237
